KUIPER-00061            
1 64521U 25134X   25243.91668981 -.01282197  00000+0 -44814-1 0  9990
2 64521  51.8774 356.0236 0006161 350.3070 127.4286 15.31849381  5737
KUIPER-00062            
1 64522U 25134Y   25243.91668981 -.00003384  00000+0 -20174-3 0  9994
2 64522  51.8862 359.9545 0009900  13.1862  32.2451 15.07444793  5006
KUIPER-00063            
1 64523U 25134Z   25243.91668981 -.01001294  00000+0 -70667-1 0  9994
2 64523  51.8845 358.9159 0006452 325.7139 171.8104 15.07168104  5202
KUIPER-00064            
1 64524U 25134AA  25243.91668981 -.00716529  00000+0 -37709-1 0  9998
2 64524  51.8934 357.6789 0004059  77.2440 358.3464 15.17616332  5878
KUIPER-00065            
1 64525U 25134AB  25243.91668981 -.01877765  00000+0 -15202+0 0  9992
2 64525  51.8909   0.8816 0009310   5.2954 153.8096 15.03029531  5698
KUIPER-00066            
1 64526U 25134AC  25243.91668981 -.00878523  00000+0 -45783-1 0  9994
2 64526  51.8996 357.8328 0005733 356.2723 313.0725 15.18044413  5462
KUIPER-00069            
1 64816U 25151A   25243.91740781  .00049048  00000+0  13500-2 0  9997
2 64816  51.8789  62.5360 0005772 306.6066  53.4389 15.36667934  8342
KUIPER-00070            
1 64817U 25151B   25243.91668981 -.00097946  00000+0 -66648-2 0  9992
2 64817  51.9021  66.5002 0006641 337.3504 278.8627 15.06257514  5086
